NORAD_CAT_ID,OBJECT_NAME,OBJECT_TYPE,EPOCH,MEAN_MOTION,ECCENTRICITY,INCLINATION,RA_OF_ASC_NODE,ARG_OF_PERICENTER,MEAN_ANOMALY,BSTAR,MEAN_MOTION_DOT,MEAN_MOTION_DDOT,TLE_LINE0,TLE_LINE1,TLE_LINE2,SEMIMAJOR_AXIS,PERIOD,APOGEE,PERIGEE,DECAYED
53243.0,STARLINK-4047,PAYLOAD,2022-10-02 06:00:00,15.08806694,0.0001401,53.2139,75.5127,61.752,295.5013,0.002121,0.00033598,0.0,0 STARLINK-4047,1 53243U 22086B   22275.25001157  .00033598  00000-0  21210-2 0  9990,2 53243  53.2139  75.5127 0001401  61.7520 295.5013 15.08806694 11369,6917.982,95.44,540.816,538.878,0.0
53243.0,STARLINK-4047,PAYLOAD,2022-10-02 14:00:01,15.08848841,0.0001492,53.2141,74.0169,60.9782,307.8404,-0.001166,-0.00018801,0.0,0 STARLINK-4047,1 53243U 22086B   22275.58334491 -.00018801  00000-0 -11660-2 0  9996,2 53243  53.2141  74.0169 0001492  60.9782 307.8404 15.08848841  1307,6917.853,95.437,540.751,538.686,0.0
53243.0,STARLINK-4047,PAYLOAD,2022-10-02 22:00:00,15.08826771,0.0001582,53.214,72.5216,53.0632,327.3592,0.0032836999999999,0.00052342,0.0,0 STARLINK-4047,1 53243U 22086B   22275.91667824  .00052342  00000-0  32837-2 0  9997,2 53243  53.2140  72.5216 0001582  53.0632 327.3592 15.08826771  1302,6917.920999999999,95.438,540.88,538.691,0.0
53243.0,STARLINK-4047,PAYLOAD,2022-10-03 06:00:00,15.08850837,0.0001402,53.2143,71.0234,59.0328,332.9979,0.00022089,3.2299999999999986e-05,0.0,0 STARLINK-4047,1 53243U 22086B   22276.25001157  .00003230  00000-0  22089-3 0  9997,2 53243  53.2143  71.0234 0001402  59.0328 332.9979 15.08850837 11513,6917.847,95.437,540.682,538.742,0.0
53243.0,STARLINK-4047,PAYLOAD,2022-10-03 14:00:01,15.08861309,0.0001472,53.2145,69.5276,56.8539,346.7877,-0.00081074,-0.00013175,0.0,0 STARLINK-4047,1 53243U 22086B   22276.58334491 -.00013175  00000-0 -81074-3 0  9993,2 53243  53.2145  69.5276 0001472  56.8539 346.7877 15.08861309  1301,6917.815,95.436,540.6990000000002,538.6619999999998,0.0
53243.0,STARLINK-4047,PAYLOAD,2022-10-03 22:00:00,15.08851795,0.0001606,53.2143,68.0321,50.2357,5.0229,0.00015153,2.125e-05,0.0,0 STARLINK-4047,1 53243U 22086B   22276.91667824  .00002125  00000-0  15153-3 0  9995,2 53243  53.2143  68.0321 0001606  50.2357   5.0229 15.08851795  1303,6917.844,95.437,540.82,538.5980000000002,0.0
53243.0,STARLINK-4047,PAYLOAD,2022-10-04 14:00:01,15.08827592,0.0001564,53.2146,65.0381,55.7818,22.7228,-0.0017214,-0.0002757,0.0,0 STARLINK-4047,1 53243U 22086B   22277.58334491 -.00027570  00000-0 -17214-2 0  9992,2 53243  53.2146  65.0381 0001564  55.7818  22.7228 15.08827592  1307,6917.918000000002,95.438,540.865,538.701,0.0
53243.0,STARLINK-4047,PAYLOAD,2022-10-04 16:00:00,15.08811914,0.0001634,53.2145,64.6644,53.9075,117.4944,-4.0144e-05,-9.26e-06,0.0,0 STARLINK-4047,1 53243U 22086B   22277.66667824 -.00000926  00000-0 -40144-4 0  9996,2 53243  53.2145  64.6644 0001634  53.9075 117.4944 15.08811914 11721,6917.965999999999,95.439,540.962,538.701,0.0
53243.0,STARLINK-4047,PAYLOAD,2022-10-04 22:00:00,15.08804832,0.000166,53.2143,63.5424,49.9414,40.1322,0.0026854,0.00042668,0.0,0 STARLINK-4047,1 53243U 22086B   22277.91667824  .00042668  00000-0  26854-2 0  9991,2 53243  53.2143  63.5424 0001660  49.9414  40.1322 15.08804832  1300,6917.988,95.44,541.001,538.7040000000002,0.0
53243.0,STARLINK-4047,PAYLOAD,2022-10-05 14:00:01,15.08871903,0.0001564,53.2145,60.5488,54.0552,59.24,-0.0042641,-0.00067574,0.0,0 STARLINK-4047,1 53243U 22086B   22278.58335648 -.00067574  00000-0 -42641-2 0  9998,2 53243  53.2145  60.5488 0001564  54.0552  59.2400 15.08871903 11865,6917.783,95.436,540.73,538.566,0.0
53243.0,STARLINK-4047,PAYLOAD,2022-10-05 22:00:00,15.08817442,0.0001653,53.2145,59.0529,47.6748,77.1645,0.00033744,5.083e-05,0.0,0 STARLINK-4047,1 53243U 22086B   22278.91667824  .00005083  00000-0  33744-3 0  9999,2 53243  53.2145  59.0529 0001653  47.6748  77.1645 15.08817442  1304,6917.949000000001,95.439,540.9580000000002,538.6709999999998,0.0
53243.0,STARLINK-4047,PAYLOAD,2022-10-06 06:00:00,15.08800747,0.0001484,53.2142,57.5547,56.6692,79.7538,0.0037146,0.00059263,0.0,0 STARLINK-4047,1 53243U 22086B   22279.25001157  .00059263  00000-0  37146-2 0  9996,2 53243  53.2142  57.5547 0001484  56.6692  79.7538 15.08800747 11966,6918.0,95.44,540.8919999999998,538.839,0.0
53243.0,STARLINK-4047,PAYLOAD,2022-10-06 14:00:01,15.0886261,0.0001588,53.2143,56.0595,53.483,94.5101,-0.0028604,-0.00045552,0.0,0 STARLINK-4047,1 53243U 22086B   22279.58334491 -.00045552  00000-0 -28604-2 0  9999,2 53243  53.2143  56.0595 0001588  53.4830  94.5101 15.08862610  1303,6917.811,95.436,540.775,538.578,0.0
53243.0,STARLINK-4047,PAYLOAD,2022-10-06 22:42:55,15.08856072,0.000162,53.2138,54.4294,47.7789,273.7355,-0.0017671,-0.00028314,0.0,0 STARLINK-4047,1 53243U 22086B   22279.94646991 -.00028314  00000-0 -17671-2 0  9999,2 53243  53.2138  54.4294 0001620  47.7789 273.7355 15.08856072  1308,6917.831,95.437,540.817,538.576,0.0
53243.0,STARLINK-4047,PAYLOAD,2022-10-07 00:00:00,15.08865863,0.0001592,53.2139,54.1887,49.258,203.2421,-0.0033507,-0.00053258,0.0,0 STARLINK-4047,1 53243U 22086B   22280.00001157 -.00053258  00000-0 -33507-2 0  9998,2 53243  53.2139  54.1887 0001592  49.2580 203.2421 15.08865863 12074,6917.801,95.436,540.768,538.565,0.0
53243.0,STARLINK-4047,PAYLOAD,2022-10-07 14:00:01,15.08858321,0.0001662,53.2141,51.5701,52.9451,129.8422,-0.0024281999999999,-0.00038745,0.0,0 STARLINK-4047,1 53243U 22086B   22280.58334491 -.00038745  00000-0 -24282-2 0  9995,2 53243  53.2141  51.5701 0001662  52.9451 129.8422 15.08858321  1308,6917.824000000001,95.436,540.839,538.54,0.0
53243.0,STARLINK-4047,PAYLOAD,2022-10-07 22:00:00,15.08850474,0.0001732,53.2139,50.0737,48.0801,146.3131,-0.0027708,-0.00044129,0.0,0 STARLINK-4047,1 53243U 22086B   22280.91667824 -.00044129  00000-0 -27708-2 0  9990,2 53243  53.2139  50.0737 0001732  48.0801 146.3131 15.08850474  1303,6917.848000000001,95.437,540.9119999999998,538.515,0.0
53243.0,STARLINK-4047,PAYLOAD,2022-10-08 06:00:00,15.08792936,0.0001639,53.214,48.5756,55.4796,150.504,0.003435,0.00054734,0.0,0 STARLINK-4047,1 53243U 22086B   22281.25001157  .00054734  00000-0  34350-2 0  9991,2 53243  53.2140  48.5756 0001639  55.4796 150.5040 15.08792936 12260,6918.024,95.441,541.023,538.755,0.0
53243.0,STARLINK-4047,PAYLOAD,2022-10-08 14:00:01,15.08831745,0.0001759,53.2142,47.0807,50.7593,166.7906,-0.001761,-0.00028199,0.0,0 STARLINK-4047,1 53243U 22086B   22281.58334491 -.00028199  00000-0 -17610-2 0  9995,2 53243  53.2142  47.0807 0001759  50.7593 166.7906 15.08831745  1304,6917.906,95.438,540.987,538.554,0.0
53243.0,STARLINK-4047,PAYLOAD,2022-10-08 22:00:00,15.08845886,0.0001809,53.2142,45.5844,47.0445,182.0764,-0.0017545,-0.00028107,0.0,0 STARLINK-4047,1 53243U 22086B   22281.91667824 -.00028107  00000-0 -17545-2 0  9997,2 53243  53.2142  45.5844 0001809  47.0445 182.0764 15.08845886 12361,6917.861999999999,95.437,540.979,538.476,0.0
53243.0,STARLINK-4047,PAYLOAD,2022-10-09 06:00:00,15.08787153,0.0001531999999999,53.2145,44.0864,47.542,193.1336,0.0040829,0.00065198,0.0,0 STARLINK-4047,1 53243U 22086B   22282.25001157  .00065198  00000-0  40829-2 0  9996,2 53243  53.2145  44.0864 0001532  47.5420 193.1336 15.08787153 12417,6918.042,95.441,540.967,538.847,0.0
53243.0,STARLINK-4047,PAYLOAD,2022-10-09 14:00:01,15.08840358,0.0001747,53.2147,42.5916,44.303,207.9385,0.00080377,0.00012527,0.0,0 STARLINK-4047,1 53243U 22086B   22282.58334491  .00012527  00000-0  80377-3 0  9993,2 53243  53.2147  42.5916 0001747  44.3030 207.9385 15.08840358  1301,6917.879,95.438,540.953,538.536,0.0
53243.0,STARLINK-4047,PAYLOAD,2022-10-09 22:00:00,15.08869901,0.0001831999999999,53.2148,41.0951,41.3492,222.4895,-0.0017153,-0.00027506,0.0,0 STARLINK-4047,1 53243U 22086B   22282.91667824 -.00027506  00000-0 -17153-2 0  9995,2 53243  53.2148  41.0951 0001832  41.3492 222.4895 15.08869901 12517,6917.7890000000025,95.436,540.9209999999998,538.387,0.0
53243.0,STARLINK-4047,PAYLOAD,2022-10-10 14:00:01,15.08918349,0.0001726,53.2163,38.1028,44.8489,242.2205,-0.0127459999999999,-0.00198043,0.0,0 STARLINK-4047,1 53243U 22086B   22283.58334491 -.00198043  00000-0 -12746-1 0  9997,2 53243  53.2163  38.1028 0001726  44.8489 242.2205 15.08918349 12620,6917.641,95.433,540.7,538.312,0.0
53243.0,STARLINK-4047,PAYLOAD,2022-10-10 22:00:01,15.08751885,0.000158,53.2166,36.6066,49.533,249.2079,0.0080809,0.00130394,0.0,0 STARLINK-4047,1 53243U 22086B   22283.91668981  .00130394  00000-0  80809-2 0  9997,2 53243  53.2166  36.6066 0001580  49.5330 249.2079 15.08751885  1302,6918.15,95.443,541.1080000000002,538.922,0.0
53243.0,STARLINK-4047,PAYLOAD,2022-10-11 14:00:01,15.08776777,0.0001859,53.2173,33.6139,40.8633,280.9839,0.0059465,0.0009547,0.0,0 STARLINK-4047,1 53243U 22086B   22284.58334491  .00095470  00000-0  59465-2 0  9996,2 53243  53.2173  33.6139 0001859  40.8633 280.9839 15.08776777 12773,6918.074000000001,95.442,541.225,538.653,0.0
53243.0,STARLINK-4047,PAYLOAD,2022-10-11 22:00:00,15.08828709,0.0001975,53.2159,32.117,42.6268,290.7436,-0.00028825,-4.871e-05,0.0,0 STARLINK-4047,1 53243U 22086B   22284.91667824 -.00004871  00000-0 -28825-3 0  9996,2 53243  53.2159  32.1170 0001975  42.6268 290.7436 15.08828709  1301,6917.915,95.438,541.146,538.414,0.0
53243.0,STARLINK-4047,PAYLOAD,2022-10-12 14:00:01,15.08825682,0.0001954,53.2168,29.1251,45.2981,311.2601,0.0036528,0.00058305,0.0,0 STARLINK-4047,1 53243U 22086B   22285.58334491  .00058305  00000-0  36528-2 0  9998,2 53243  53.2168  29.1251 0001954  45.2981 311.2601 15.08825682 12925,6917.924,95.438,541.141,538.437,0.0
53243.0,STARLINK-4047,PAYLOAD,2022-10-12 22:00:00,15.088957,0.0001786999999999,53.2168,27.6282,48.0014,320.1539,-0.0056932,-0.00089904,0.0,0 STARLINK-4047,1 53243U 22086B   22285.91667824 -.00089904  00000-0 -56932-2 0  9996,2 53243  53.2168  27.6282 0001787  48.0014 320.1539 15.08895700  1301,6917.71,95.434,540.811,538.339,0.0
